IRIDIUM 112             
1 41925U 17003J   24281.75191928  .00001093  00000+0  38323-3 0  9995
2 41925  86.4010 346.3378 0001866  89.6031 270.5378 14.34214871404773
IRIDIUM 111             
1 41926U 17003K   24282.15784196  .00001482  00000+0  52198-3 0  9994
2 41926  86.4010 346.2258 0001924  96.7163 263.4251 14.34221880404881
IRIDIUM 113             
1 42803U 17039A   24282.34709462  .00002677  00000+0  94844-3 0  9993
2 42803  86.4012 219.8846 0002012  83.0646 277.0779 14.34221253382773
IRIDIUM 123             
1 42804U 17039B   24281.62113324  .00001231  00000+0  43255-3 0  9995
2 42804  86.3932 251.6645 0002264  89.6622 270.4833 14.34224831381435
IRIDIUM 120             
1 42805U 17039C   24281.85239313  .00000699  00000+0  24249-3 0  9997
2 42805  86.3999 219.9532 0002381  83.2274 276.9193 14.34217032382698
IRIDIUM 115             
1 42806U 17039D   24282.35143129  .00005953  00000+0  17618-2 0  9992
2 42806  86.4536 219.7861 0002038  88.8832 271.2602 14.43299004385291
IRIDIUM 118             
1 42807U 17039E   24281.86215098  .00000224  00000+0  73039-4 0  9990
2 42807  86.3933 251.5646 0002376  84.5762 275.5705 14.34221320381469
IRIDIUM 117             
1 42808U 17039F   24282.16024560  .00002691  00000+0  95311-3 0  9993
2 42808  86.3933 251.4033 0002119  89.9187 270.2251 14.34235687381542
